ALOS (DAICHI)           
1 28931U 06002A   26013.15266713  .00001065  00000+0  18755-3 0  9994
2 28931  98.1131 329.4279 0002134  92.5218 267.6232 14.69599554 65322
H-2A R/B                
1 28932U 06002B   26012.96170867  .00005551  00000+0  28831-3 0  9997
2 28932  98.2325 155.2802 0054585  71.3719 289.3427 15.15269896 85991
RESURS-DK 1             
1 29228U 06021A   26013.11695423  .00001771  00000+0  10801-3 0  9993
2 29228  69.9338  20.7356 0005980 231.8930 128.1697 15.12367220 79126
CZ-4B R/B               
1 29507U 06046C   26013.12052128  .00003984  00000+0  20637-3 0  9996
2 29507  97.5698  58.1746 0035293  99.7559 260.7662 15.16241139 51622
CZ-2C R/B               
1 31114U 07010B   26012.92902043  .00000090  00000+0  59840-4 0  9996
2 31114  98.3972 129.0106 0060142  96.3407 264.4625 14.20224134971808
COSMO-SKYMED 1          
1 31598U 07023A   26013.15992359  .00002262  00000+0  20674-3 0  9996
2 31598  97.8848 203.7716 0001373  75.8663 284.2710 14.96044858  6602
COSMOS 2428             
1 31792U 07029A   26013.10163695  .00000332  00000+0  20390-3 0  9997
2 31792  70.9395 320.0335 0005552 341.3753  18.7164 14.12908620956242
SL-16 R/B               
1 31793U 07029B   26013.14249962 -.00000221  00000+0 -89568-4 0  9996
2 31793  70.9767 289.1481 0002255 273.5673 189.9594 14.14824892957516
KORONAS-FOTON           
1 33504U 09003A   26012.97751788  .00007684  00000+0  17978-3 0  9999
2 33504  82.4317 333.7213 0011404  10.1384 350.0090 15.41879527937152
CZ-2C R/B               
1 37731U 11030B   26013.13724574  .00000947  00000+0  12627-3 0  9991
2 37731  97.8453 331.5584 0052917 169.5751 201.1856 14.81007447781876
H-2A R/B                
1 38341U 12025E   26013.17337081  .00002797  00000+0  25889-3 0  9990
2 38341  98.4636 335.8396 0046119 132.8625 227.6481 14.94672005739920
SHIJIAN-16 (SJ-16)      
1 39358U 13057A   26013.18385969  .00002114  00000+0  21008-3 0  9996
2 39358  74.9734 290.1535 0017824 247.0500 112.8807 14.92135364663223
