CCSDS_OMM_VERS = 2.0
CREATION_DATE  = 
ORIGINATOR     = 

OBJECT_NAME    = ALOS (DAICHI)
OBJECT_ID      = 2006-002A
CENTER_NAME    = EARTH
REF_FRAME      = TEME
TIME_SYSTEM    = UTC
MEAN_ELEMENT_THEORY = SGP/SGP4

EPOCH          = 2026-01-13T03:39:50.440032
MEAN_MOTION    = 14.69599554
ECCENTRICITY   = .0002134
INCLINATION    = 98.1131
RA_OF_ASC_NODE = 329.4279
ARG_OF_PERICENTER = 92.5218
MEAN_ANOMALY   = 267.6232

EPHEMERIS_TYPE = 0
CLASSIFICATION_TYPE = U
NORAD_CAT_ID   = 28931
ELEMENT_SET_NO = 999
REV_AT_EPOCH   = 6532
BSTAR          = .18755E-3
MEAN_MOTION_DOT = .1065E-4
MEAN_MOTION_DDOT = 0

CCSDS_OMM_VERS = 2.0
CREATION_DATE  = 
ORIGINATOR     = 

OBJECT_NAME    = H-2A R/B
OBJECT_ID      = 2006-002B
CENTER_NAME    = EARTH
REF_FRAME      = TEME
TIME_SYSTEM    = UTC
MEAN_ELEMENT_THEORY = SGP/SGP4

EPOCH          = 2026-01-12T23:04:51.629088
MEAN_MOTION    = 15.15269896
ECCENTRICITY   = .0054585
INCLINATION    = 98.2325
RA_OF_ASC_NODE = 155.2802
ARG_OF_PERICENTER = 71.3719
MEAN_ANOMALY   = 289.3427

EPHEMERIS_TYPE = 0
CLASSIFICATION_TYPE = U
NORAD_CAT_ID   = 28932
ELEMENT_SET_NO = 999
REV_AT_EPOCH   = 8599
BSTAR          = .28831E-3
MEAN_MOTION_DOT = .5551E-4
MEAN_MOTION_DDOT = 0

CCSDS_OMM_VERS = 2.0
CREATION_DATE  = 
ORIGINATOR     = 

OBJECT_NAME    = RESURS-DK 1
OBJECT_ID      = 2006-021A
CENTER_NAME    = EARTH
REF_FRAME      = TEME
TIME_SYSTEM    = UTC
MEAN_ELEMENT_THEORY = SGP/SGP4

EPOCH          = 2026-01-13T02:48:24.845472
MEAN_MOTION    = 15.12367220
ECCENTRICITY   = .000598
INCLINATION    = 69.9338
RA_OF_ASC_NODE = 20.7356
ARG_OF_PERICENTER = 231.8930
MEAN_ANOMALY   = 128.1697

EPHEMERIS_TYPE = 0
CLASSIFICATION_TYPE = U
NORAD_CAT_ID   = 29228
ELEMENT_SET_NO = 999
REV_AT_EPOCH   = 7912
BSTAR          = .10801E-3
MEAN_MOTION_DOT = .1771E-4
MEAN_MOTION_DDOT = 0

CCSDS_OMM_VERS = 2.0
CREATION_DATE  = 
ORIGINATOR     = 

OBJECT_NAME    = CZ-4B R/B
OBJECT_ID      = 2006-046C
CENTER_NAME    = EARTH
REF_FRAME      = TEME
TIME_SYSTEM    = UTC
MEAN_ELEMENT_THEORY = SGP/SGP4

EPOCH          = 2026-01-13T02:53:33.038592
MEAN_MOTION    = 15.16241139
ECCENTRICITY   = .0035293
INCLINATION    = 97.5698
RA_OF_ASC_NODE = 58.1746
ARG_OF_PERICENTER = 99.7559
MEAN_ANOMALY   = 260.7662

EPHEMERIS_TYPE = 0
CLASSIFICATION_TYPE = U
NORAD_CAT_ID   = 29507
ELEMENT_SET_NO = 999
REV_AT_EPOCH   = 5162
BSTAR          = .20637E-3
MEAN_MOTION_DOT = .3984E-4
MEAN_MOTION_DDOT = 0

CCSDS_OMM_VERS = 2.0
CREATION_DATE  = 
ORIGINATOR     = 

OBJECT_NAME    = CZ-2C R/B
OBJECT_ID      = 2007-010B
CENTER_NAME    = EARTH
REF_FRAME      = TEME
TIME_SYSTEM    = UTC
MEAN_ELEMENT_THEORY = SGP/SGP4

EPOCH          = 2026-01-12T22:17:47.365152
MEAN_MOTION    = 14.20224134
ECCENTRICITY   = .0060142
INCLINATION    = 98.3972
RA_OF_ASC_NODE = 129.0106
ARG_OF_PERICENTER = 96.3407
MEAN_ANOMALY   = 264.4625

EPHEMERIS_TYPE = 0
CLASSIFICATION_TYPE = U
NORAD_CAT_ID   = 31114
ELEMENT_SET_NO = 999
REV_AT_EPOCH   = 97180
BSTAR          = .5984E-4
MEAN_MOTION_DOT = .9E-6
MEAN_MOTION_DDOT = 0

CCSDS_OMM_VERS = 2.0
CREATION_DATE  = 
ORIGINATOR     = 

OBJECT_NAME    = COSMO-SKYMED 1
OBJECT_ID      = 2007-023A
CENTER_NAME    = EARTH
REF_FRAME      = TEME
TIME_SYSTEM    = UTC
MEAN_ELEMENT_THEORY = SGP/SGP4

EPOCH          = 2026-01-13T03:50:17.398176
MEAN_MOTION    = 14.96044858
ECCENTRICITY   = .0001373
INCLINATION    = 97.8848
RA_OF_ASC_NODE = 203.7716
ARG_OF_PERICENTER = 75.8663
MEAN_ANOMALY   = 284.2710

EPHEMERIS_TYPE = 0
CLASSIFICATION_TYPE = U
NORAD_CAT_ID   = 31598
ELEMENT_SET_NO = 999
REV_AT_EPOCH   = 660
BSTAR          = .20674E-3
MEAN_MOTION_DOT = .2262E-4
MEAN_MOTION_DDOT = 0

CCSDS_OMM_VERS = 2.0
CREATION_DATE  = 
ORIGINATOR     = 

OBJECT_NAME    = COSMOS 2428
OBJECT_ID      = 2007-029A
CENTER_NAME    = EARTH
REF_FRAME      = TEME
TIME_SYSTEM    = UTC
MEAN_ELEMENT_THEORY = SGP/SGP4

EPOCH          = 2026-01-13T02:26:21.432480
MEAN_MOTION    = 14.12908620
ECCENTRICITY   = .0005552
INCLINATION    = 70.9395
RA_OF_ASC_NODE = 320.0335
ARG_OF_PERICENTER = 341.3753
MEAN_ANOMALY   = 18.7164

EPHEMERIS_TYPE = 0
CLASSIFICATION_TYPE = U
NORAD_CAT_ID   = 31792
ELEMENT_SET_NO = 999
REV_AT_EPOCH   = 95624
BSTAR          = .2039E-3
MEAN_MOTION_DOT = .332E-5
MEAN_MOTION_DDOT = 0

CCSDS_OMM_VERS = 2.0
CREATION_DATE  = 
ORIGINATOR     = 

OBJECT_NAME    = SL-16 R/B
OBJECT_ID      = 2007-029B
CENTER_NAME    = EARTH
REF_FRAME      = TEME
TIME_SYSTEM    = UTC
MEAN_ELEMENT_THEORY = SGP/SGP4

EPOCH          = 2026-01-13T03:25:11.967168
MEAN_MOTION    = 14.14824892
ECCENTRICITY   = .0002255
INCLINATION    = 70.9767
RA_OF_ASC_NODE = 289.1481
ARG_OF_PERICENTER = 273.5673
MEAN_ANOMALY   = 189.9594

EPHEMERIS_TYPE = 0
CLASSIFICATION_TYPE = U
NORAD_CAT_ID   = 31793
ELEMENT_SET_NO = 999
REV_AT_EPOCH   = 95751
BSTAR          = -.89568E-4
MEAN_MOTION_DOT = -.221E-5
MEAN_MOTION_DDOT = 0

CCSDS_OMM_VERS = 2.0
CREATION_DATE  = 
ORIGINATOR     = 

OBJECT_NAME    = KORONAS-FOTON
OBJECT_ID      = 2009-003A
CENTER_NAME    = EARTH
REF_FRAME      = TEME
TIME_SYSTEM    = UTC
MEAN_ELEMENT_THEORY = SGP/SGP4

EPOCH          = 2026-01-12T23:27:37.544832
MEAN_MOTION    = 15.41879527
ECCENTRICITY   = .0011404
INCLINATION    = 82.4317
RA_OF_ASC_NODE = 333.7213
ARG_OF_PERICENTER = 10.1384
MEAN_ANOMALY   = 350.0090

EPHEMERIS_TYPE = 0
CLASSIFICATION_TYPE = U
NORAD_CAT_ID   = 33504
ELEMENT_SET_NO = 999
REV_AT_EPOCH   = 93715
BSTAR          = .17978E-3
MEAN_MOTION_DOT = .7684E-4
MEAN_MOTION_DDOT = 0

CCSDS_OMM_VERS = 2.0
CREATION_DATE  = 
ORIGINATOR     = 

OBJECT_NAME    = CZ-2C R/B
OBJECT_ID      = 2011-030B
CENTER_NAME    = EARTH
REF_FRAME      = TEME
TIME_SYSTEM    = UTC
MEAN_ELEMENT_THEORY = SGP/SGP4

EPOCH          = 2026-01-13T03:17:38.031936
MEAN_MOTION    = 14.81007447
ECCENTRICITY   = .0052917
INCLINATION    = 97.8453
RA_OF_ASC_NODE = 331.5584
ARG_OF_PERICENTER = 169.5751
MEAN_ANOMALY   = 201.1856

EPHEMERIS_TYPE = 0
CLASSIFICATION_TYPE = U
NORAD_CAT_ID   = 37731
ELEMENT_SET_NO = 999
REV_AT_EPOCH   = 78187
BSTAR          = .12627E-3
MEAN_MOTION_DOT = .947E-5
MEAN_MOTION_DDOT = 0

CCSDS_OMM_VERS = 2.0
CREATION_DATE  = 
ORIGINATOR     = 

OBJECT_NAME    = H-2A R/B
OBJECT_ID      = 2012-025E
CENTER_NAME    = EARTH
REF_FRAME      = TEME
TIME_SYSTEM    = UTC
MEAN_ELEMENT_THEORY = SGP/SGP4

EPOCH          = 2026-01-13T04:09:39.237984
MEAN_MOTION    = 14.94672005
ECCENTRICITY   = .0046119
INCLINATION    = 98.4636
RA_OF_ASC_NODE = 335.8396
ARG_OF_PERICENTER = 132.8625
MEAN_ANOMALY   = 227.6481

EPHEMERIS_TYPE = 0
CLASSIFICATION_TYPE = U
NORAD_CAT_ID   = 38341
ELEMENT_SET_NO = 999
REV_AT_EPOCH   = 73992
BSTAR          = .25889E-3
MEAN_MOTION_DOT = .2797E-4
MEAN_MOTION_DDOT = 0

CCSDS_OMM_VERS = 2.0
CREATION_DATE  = 
ORIGINATOR     = 

OBJECT_NAME    = SHIJIAN-16 (SJ-16)
OBJECT_ID      = 2013-057A
CENTER_NAME    = EARTH
REF_FRAME      = TEME
TIME_SYSTEM    = UTC
MEAN_ELEMENT_THEORY = SGP/SGP4

EPOCH          = 2026-01-13T04:24:45.477216
MEAN_MOTION    = 14.92135364
ECCENTRICITY   = .0017824
INCLINATION    = 74.9734
RA_OF_ASC_NODE = 290.1535
ARG_OF_PERICENTER = 247.0500
MEAN_ANOMALY   = 112.8807

EPHEMERIS_TYPE = 0
CLASSIFICATION_TYPE = U
NORAD_CAT_ID   = 39358
ELEMENT_SET_NO = 999
REV_AT_EPOCH   = 66322
BSTAR          = .21008E-3
MEAN_MOTION_DOT = .2114E-4
MEAN_MOTION_DDOT = 0

